{"fetched_at":"2026-03-29T16:36:15Z","count":15609,"tles":[{"name":"STARLINK-1417","line1":"1 45693U 20035AN  26087.95143242  .00010051  00000+0  57168-3 0  9996","line2":"2 45693  53.0530 326.9361 0001615 299.0485  61.0345 15.13443973321819","category":"Starlink"}]}